[{"OBJECT_NAME":"HULIANWANG DIGUI-32","OBJECT_ID":"2025-121C","EPOCH":"2026-03-09T22:59:34.933344","MEAN_MOTION":13.24425526,"ECCENTRICITY":0.00019991,"INCLINATION":86.4919,"RA_OF_ASC_NODE":46.9111,"ARG_OF_PERICENTER":78.7667,"MEAN_ANOMALY":281.3692,"EPHEMERIS_TYPE":0,"CLASSIFICATION_TYPE":"U","NORAD_CAT_ID":64285,"ELEMENT_SET_NO":999,"REV_AT_EPOCH":3702,"BSTAR":0.0001516168,"MEAN_MOTION_DOT":8.0e-7,"MEAN_MOTION_DDOT":0},{"OBJECT_NAME":"COSMOS 970 DEB","OBJECT_ID":"1977-121BJ","EPOCH":"2026-03-08T04:00:49.065120","MEAN_MOTION":13.22387315,"ECCENTRICITY":0.01449968,"INCLINATION":64.6824,"RA_OF_ASC_NODE":347.1932,"ARG_OF_PERICENTER":170.1561,"MEAN_ANOMALY":340.3622,"EPHEMERIS_TYPE":0,"CLASSIFICATION_TYPE":"U","NORAD_CAT_ID":14511,"ELEMENT_SET_NO":999,"REV_AT_EPOCH":9516,"BSTAR":0.00043823694,"MEAN_MOTION_DOT":1.16e-6,"MEAN_MOTION_DDOT":0}]
